#dP2020  7 15  0  0  0.00000000      97 __u+U IGS14 FIT  IAC
## 2114 259200.00000000   900.00000000 59045 0.0000000000000
+  122   C01C02C03C04C05C06C07C08C09C10C11C12C13C14C16C19C20
+        C21C22C23C24C25C26C27C28C29C30C32C33C34C35C36C37C38
+        C39C40C43C44C45C46C60E01E02E03E04E05E07E08E09E11E12
+        E13E14E15E18E19E21E24E25E26E27E30E31E33E36G01G02G03
+        G04G05G06G07G08G09G10G11G12G13G14G15G16G17G18G19G20
+        G21G22G24G25G26G27G28G29G30G31G32J01J02J03J07R01R02
+        R03R04R05R07R08R09R11R12R13R14R15R16R17R18R19R20R21
+        R23R24R26  0  0  0  0  0  0  0  0  0  0  0  0  0  0
++         0  0  0  0  0  0  0  0  0  0  0  0  0  0  0  0  0
++         0  0  0  0  0  0  0  0  0  0  0  0  0  0  0  0  0
++         0  0  0  0  0  0  0  0  0  0  0  0  0  0  0  0  0
++         0  0  0  0  0  0  0  0  0  0  0  0  0  0  0  0  0
++         0  0  0  0  0  0  0  0  0  0  0  0  0  0  0  0  0
++         0  0  0  0  0  0  0  0  0  0  0  0  0  0  0  0  0
++         0  0  0  0  0  0  0  0  0  0  0  0  0  0  0  0  0
++         0  0  0  0  0  0  0  0  0  0  0  0  0  0  0  0  0
%c M  cc GPS ccc cccc cccc cccc cccc ccccc ccccc ccccc ccccc
%c cc cc ccc ccc cccc cccc cccc cccc ccccc ccccc ccccc ccccc
%f  1.2500000  1.025000000  0.00000000000  0.000000000000000
%f  0.0000000  0.000000000  0.00000000000  0.000000000000000
%i    0    0    0    0      0      0      0      0         0
%i    0    0    0    0      0      0      0      0         0
/* INFORMATION & ANALYSIS CENTER (IAC)            FINAL DATA
/* S/V CLOCKS ARE ALIGNED TO GNSS TIME                      
/* G:C1WC2W R:C1PC2P E:C1XC5X C:C2IC6I J:C1CC2S             
/* PCV:IGS14_2113 OL/AL:FES2004  NONE     YN ORB:CoN CLK:CoN
*  2020 07 15 14  0  0.00000000
PC01 -34372.009264  24411.180097   -127.184482   -324.182112
PC02   4494.040674  41943.706691    506.659645    214.251009
PC03      0.000000      0.000000      0.000000 999999.999999
PC04 -39644.216228  14392.143287   -622.859871   -103.692528
PC05  21950.185511  36006.691654    809.103234   -635.917829
PC06  -7871.292212  24881.084867  33599.932857    782.346966
PC07 -23216.418401  29053.310484 -20149.559823    -36.800269
PC08 -11951.680982  38582.123046 -11435.933945   -376.770013
PC09   6267.926743  31730.663061  27514.701576    677.969775
PC10  -9899.448483  29777.581082 -28147.428985   -236.179496
PC11  20243.393761  16908.164885   9082.858029   -492.445285
PC12  11055.336852  23970.641558  -8978.876559    432.813376
PC13  -3089.111015  41823.834992   2505.099253    544.188703
PC14  22853.308055   6813.260831  14472.611259    672.117187
PC16  -5053.007669  25621.697540  33224.976488   -599.792107
PC19 -27201.191301   -292.988408  -6250.307289    475.845288
PC20 -15960.112659 -11497.285303 -19789.658667   -839.480738
PC21  -5343.870227  16284.348654  22047.702652   -660.639330
PC22 -22949.822127  11281.692287  11218.894319   -772.106730
PC23  16796.058982 -18968.909350 -11676.534835   -844.482989
PC24   7107.623515  18844.174277 -19308.298718   -764.833953
PC25  17124.724528  -1039.555993 -22011.437389   -686.907811
PC26  -5653.410876  26652.917683  -5966.595372    755.596686
PC27  -2768.389134 -22395.328935  16386.754300    364.753242
PC28  12855.068521  -9308.328302  22951.516743   -196.685709
PC29 -21245.343971  -8366.320012 -16053.723797    256.294059
PC30 -17356.894313 -21830.553456    596.131191    346.789875
PC32   5175.366128 -16316.975041 -22019.458865   -876.317464
PC33  27159.849458    252.490365   6361.523118   -799.144953
PC34  17556.033363  21706.322647   -121.960853   -901.508096
PC35 -12710.984281   9619.218845 -22910.199326   -749.041276
PC36 -17084.526124    362.146984  22094.863667   -869.804252
PC37   6731.629738 -26556.029615   5356.248660   -870.450067
PC38 -11465.650765  39305.042760  -9774.212716     89.048371
PC39  -3023.431905  25957.209435  33113.751261     19.251590
PC40 -18324.266651  25348.261968 -28363.669766     61.804321
PC43  21304.870466   8768.151288  15753.300449   -283.346458
PC44   3266.450521  22310.766201 -16468.648839   -324.052368
PC45 -16689.142119  19034.724768  11744.732317    180.336331
PC46  -7454.486894 -18364.466518  19669.790694    735.265904
PC60      0.000000      0.000000      0.000000 999999.999999
PE01   9954.833954 -23187.553961  15471.757089   -898.808381
PE02  -9873.482519  23174.219961 -15538.924265    147.474624
PE03   -537.376020  17543.472747  23838.185932   -320.859585
PE04 -19782.395795 -16752.194159 -14283.490121   -566.316168
PE05 -20763.651046   8050.179680  19509.992943   -363.046254
PE07  28708.501455   6079.522782  -3811.150864   -409.263107
PE08  20074.574778  16482.343687  14188.083535   6149.299363
PE09 -28760.621996  -5836.311484   3954.705500   5995.880725
PE11 -17237.023350  -7032.827885 -23021.574107   4119.939209
PE12 -12341.740345 -25181.239807  -9454.478807   5705.173623
PE13  17196.252502   7276.772882  22967.059986    402.337391
PE14 -23233.841817   5441.376398 -21802.298451  -1085.113618
PE15  12511.690547  25029.918927   9654.677312    859.909788
PE18  19280.644134      4.718822  13912.417276  -1188.118884
PE19   2883.246927 -16837.187038 -24163.719701     28.336307
PE21  22662.970204 -18897.850278  -2278.483074   -610.231589
PE24 -22331.692924   3004.538728  19181.163090   5349.613576
PE25 -22724.729960  18819.025736   2428.227690   -513.652002
PE26  11787.789080 -15191.086484  22503.093123   2957.133095
PE27  22417.316043  -3444.819090 -19012.754143    176.963566
PE30   8582.079686  14355.799114 -24426.181759   3745.393117
PE31  -9018.208635 -13953.063733  24507.523371   -473.234810
PE33   -472.445911 -28082.350311   9336.091518   -464.899917
PE36 -11784.873649  14755.477005 -22796.225822    533.796946
PG01  13594.630369 -11094.527567  19598.003690     25.685426
PG02 -13450.161843 -12540.071519 -18545.109430   -487.610549
PG03  23518.675422 -12211.061146    403.404639   -240.466608
PG04  16762.673930  -5514.645208 -19848.531687   -112.735472
PG05 -20283.947055  -2437.639181 -17220.811773    -16.706568
PG06  -6775.299278 -23040.474553 -11245.336063   -303.355926
PG07   5840.531309 -24680.109829  -6657.166747   -327.800067
PG08  23197.877446   3853.915960  12606.346742    -41.040005
PG09   5602.570375 -14530.044261 -21564.220999   -254.014723
PG10    -69.687490  16423.932293  20910.334737   -400.300007
PG11  16498.028433  -1591.266578  20219.273670   -220.458720
PG12 -24280.027423  10541.944175    394.197872     93.414989
PG13 -22512.368141 -12475.661553   6648.766806     26.968420
PG14  17052.908040  19190.646262   7527.959500      1.544481
PG15 -23513.962332  -1112.412749  12335.703677   -217.373479
PG16  21809.003053   2121.906882 -15538.879568   -183.035922
PG17 -10339.296170 -19599.644832  15098.435771    296.284100
PG18  -6173.098900  24907.890552  -6803.780954    246.823518
PG19 -16510.333298 -19269.804312   7620.752748   -131.702976
PG20 -10739.003989  20022.040972  13488.613583    527.294960
PG21   7357.254149  24258.047049   9205.149314     23.978261
PG22  23847.055740  -7961.063454   8543.504137   -771.846804
PG24 -14516.906242   9004.706914  20050.020832    -15.678129
PG25 -18465.302148  16809.272691  -8900.864416     23.603001
PG26  11625.478282  10975.861963 -21268.091380    243.789837
PG27  23483.804099  12484.105221   2660.364726   -346.456679
PG28   -143.479894 -15931.764561  21856.549795    699.345329
PG29 -10362.500520  10582.767940 -22094.620342   -150.839008
PG30   -944.615021 -26176.288711   3661.365322   -262.508975
PG31   7721.566498  21728.809142 -12806.851246    -55.751644
PG32  12245.795899  19100.233143  14017.229046    317.383882
PJ01 -30464.692574  24272.640778  21288.263869   -231.846913
PJ02 -34106.081955  24401.133585   9559.140583     -1.303399
PJ03 -20945.344364  20816.027081 -25476.159333     -0.103302
PJ07 -25418.769721  33646.319757     26.930242     -0.002437
PR01   8536.045318  10610.344808  21569.532428     64.578130
PR02  24467.512939   4045.396671   6133.256729    436.388304
PR03  22497.102596  -4394.673636 -11196.601141     18.584485
PR04   7729.212217 -10061.746626 -22099.422311     56.370223
PR05 -11307.554028 -10119.389854 -20483.952841     54.120865
PR07 -22088.577177   4703.755750  11858.968149    -38.478296
PR08  -7702.752103  10208.863076  22124.085894    -53.478478
PR09 -14299.350686   3593.772871  20852.993693    143.539456
PR11 -10470.824278  22425.814516  -6270.622348    -30.610481
PR12    825.558694  16178.505216 -19667.813490    147.333462
PR13  12229.524066    445.263084 -22391.147204    -41.249541
PR14  16467.006299 -15552.768669 -11695.072365     53.363184
PR15  11058.661574 -22317.661031   5516.189725    106.934916
PR16  -1673.099624 -15888.842786  19907.660558     -4.661662
PR17  10023.709872  -3621.371377  23174.939578    341.423594
PR18   -242.283061 -18151.884891  17902.322308     42.368115
PR19  -9584.375053 -23382.911539   3490.353782   -102.455679
PR20 -14482.374463 -14287.763112 -15361.099407   -416.800802
PR21  -9505.470116   4483.891721 -23249.030253   -138.274372
PR23  12856.214891  21728.431753   3623.952056    318.802174
PR24  14872.176030  13444.636720  15771.263944      6.382969
PR26 -14615.809126 -17717.263961 -11122.848244   -365.046808
EOF
